SWARM A                 
1 39452U 13067B   26060.45168844  .00012283  00000+0  23007-3 0  9994
2 39452  87.3297  96.2111 0003025  93.4800 266.6806 15.48530842689563
SWARM C                 
1 39453U 13067C   26060.45157800  .00012356  00000+0  23146-3 0  9990
2 39453  87.3294  94.7929 0003034  93.3651 266.7956 15.48529812689522
BRITE-CA1 (TORONTO)     
1 40020U 14033L   26060.33848387  .00001490  00000+0  23238-3 0  9999
2 40020  97.9553 191.3797 0077656 262.0328  97.2062 14.72434068626343
OCO 2                   
1 40059U 14035A   26060.48125792  .00000658  00000+0  15615-3 0  9992
2 40059  98.2188   3.4425 0001135  90.3817 269.7511 14.57082112620361
BRITE-PL2 (HEWELIUSZ)   
1 40119U 14049B   26060.30201127  .00002887  00000+0  27485-3 0  9996
2 40119  97.8976 171.5846 0015358 107.1507 253.1396 14.94126309625335
MMS 1                   
1 40482U 15011A   26060.58335647 -.00002243  00000+0  00000+0 0  9991
2 40482  70.7227 350.2441 8416092 165.1990 122.8739  0.28329377  1324
MMS 2                   
1 40483U 15011B   26060.58335647 -.00002244  00000+0  00000+0 0  9993
2 40483  70.7268 350.2448 8416881 165.2061 122.8536  0.28329336  1323
MMS 3                   
1 40484U 15011C   26060.58335647 -.00002243  00000+0  00000+0 0  9993
2 40484  70.7292 350.2494 8416168 165.2002 122.8627  0.28329304  1321
MMS 4                   
1 40485U 15011D   26060.58335647 -.00002243  00000+0  00000+0 0  9994
2 40485  70.7235 350.2460 8415610 165.2066 122.8515  0.28329348  1327
ASTROSAT                
1 40930U 15052A   26060.37901586  .00002241  00000+0  19198-3 0  9991
2 40930   5.9961 211.2479 0008582 294.0802  65.8428 14.82269769563801
DAMPE                   
1 41173U 15078A   26060.56239028  .00001626  00000+0  57716-4 0  9990
2 41173  97.4579  65.5146 0013852  96.2859 263.9960 15.30463312568084
PISAT                   
1 41784U 16059B   26060.51387196  .00001313  00000+0  23189-3 0  9992
2 41784  97.8187  65.6105 0028882 186.7021 173.3803 14.68749459503934
HXMT (HUIYAN)           
1 42758U 17034A   26060.48365076  .00006287  00000+0  31701-3 0  9991
2 42758  43.0148  62.2903 0031968 185.2977 174.7536 15.17337368481297
FLYING LAPTOP           
1 42831U 17042G   26060.50884810  .00002169  00000+0  17634-3 0  9991
2 42831  97.4242 220.5483 0018226 122.3025 237.9968 15.00447709470301
ZHANGHENG 1-01 (CSES-1) 
1 43194U 18015C   26060.49710552  .00010776  00000+0  49012-3 0  9992
2 43194  97.6732 224.0763 0014752 274.9286  85.0265 15.20820696448278
SALSAT                  
1 46495U 20068K   26060.48768708  .00011000  00000+0  40526-3 0  9997
2 46495  97.8843  57.1429 0008976 330.8256  29.2479 15.27983521298908
IXPE                    
1 49954U 21121A   26060.50003471  .00013204  00000+0  75173-3 0  9997
2 49954   0.2317  50.9441 0007731 248.8835 321.5024 15.09075705  5916
